P/2015 X3 (PANSTARRS),e,24.4003,77.2794,306.7157,5.006247,0.0879905,0.43971804,214.5466,04/14.0/2022,2000,g 15.0,4.0
# From MPC119995
C/2015 X5 (PANSTARRS),h,12/27.8804/2017,124.3121,122.3281,27.5739,1.000057,6.794492,2000,7.5,4.0
# From MPC115881
P/2015 X6 (PANSTARRS),e,4.5645,106.9398,329.8090,2.753108,0.2157592,0.17285035,117.3684,04/14.0/2022,2000,g 16.0,4.0
# From MPEC 2021-P47
C/2016 A1 (PANSTARRS),e,121.2085,128.1913,10.1356,52939,0.0000001,0.99989955,0.0000,11/21.3791/2017,2000,g  6.0,4.0
# From MPC100282
P/2016 A2 (Christensen),e,26.4029,291.6176,141.3236,4.753261,0.0951079,0.27063181,237.4129,04/14.0/2022,2000,g 11.5,4.0
# From MPC115881
P/2016 A3 (PANSTARRS),e,8.5103,187.2347,340.9846,7.884274,0.0445206,0.38617237,80.7128,04/14.0/2022,2000,g 10.0,4.0
# From MPC102098
P/2016 A7 (PANSTARRS),e,16.6055,221.4971,352.5755,5.034127,0.0872605,0.56448341,195.7680,04/14.0/2022,2000,g 16.0,4.0
# From MPC109143
P/2016 BA14 (PANSTARRS),e,18.8949,180.5193,351.9198,3.025529,0.1872846,0.66505968,56.3156,04/14.0/2022,2000,g 21.0,4.0
# From MPC110494
C/2016 E1 (PANSTARRS),h,06/03.9001/2017,131.8701,233.1255,47.4561,1.006209,8.174039,2000,6.5,4.0
# From MPEC 2021-P47
P/2016 G1 (PANSTARRS),e,10.9714,204.0227,111.1125,2.582274,0.2375203,0.21095893,92.1930,04/14.0/2022,2000,g 14.0,4.0
# From MPEC 2017-D91
P/2016 J1-A (PANSTARRS),e,14.3288,199.8117,46.9930,3.172034,0.1744606,0.22772354,9.1204,04/14.0/2022,2000,g 16.5,4.0
# From MPEC 2017-A77
P/2016 J1-B (PANSTARRS),e,14.3315,199.8166,46.8841,3.171664,0.1744911,0.22757420,9.2599,04/14.0/2022,2000,g 17.0,4.0
# From MPEC 2022-ED3
C/2016 M1 (PANSTARRS),e,90.9298,92.2396,209.9339,92359,0.0000000,0.99997603,0.0000,08/10.5523/2018,2000,g  5.0,4.0
# From MPEC 2021-N06
C/2016 N4 (MASTER),e,72.6515,353.9902,55.9529,4945,0.0000028,0.99935361,0.0000,09/17.3410/2017,2000,g  8.5,4.0
# From MPEC 2021-P47
C/2016 N6 (PANSTARRS),e,105.8470,298.9589,162.6321,1093,0.0000273,0.99756429,0.0000,07/17.7309/2018,2000,g  7.0,4.0
# From MPC102099
P/2016 P1 (PANSTARRS),e,24.4531,319.5671,270.1958,3.195068,0.1725774,0.28926235,53.0544,04/14.0/2022,2000,g 15.0,4.0
# From MPEC 2022-GA9
C/2016 Q2 (PANSTARRS),h,05/12.1637/2021,109.3875,322.2993,84.5464,1.001977,7.081961,2000,6.0,4.0
# From MPC102955
C/2016 Q4 (Kowalski),e,7.2509,271.2966,99.5667,16.98987,0.0140741,0.58262268,21.6029,04/14.0/2022,2000,g  7.0,4.0
# From MPEC 2021-N06
C/2016 R2 (PANSTARRS),e,58.2823,80.5340,33.1119,478.9287,0.0000940,0.99457348,0.0000,05/09.0013/2018,2000,g  7.0,4.0
# From MPC109144
P/2016 R4 (Gibbs),e,10.8778,168.2618,174.0903,5.332101,0.0800491,0.47640121,167.3434,04/14.0/2022,2000,g 12.5,4.0
# From MPC105543
P/2016 S1 (PANSTARRS),e,94.7118,227.6115,273.2737,8.277455,0.0413865,0.71006019,76.7677,04/14.0/2022,2000,g 12.0,4.0
# From MPC110082
C/2016 T3 (PANSTARRS),e,22.7028,271.6831,194.5841,129.2166,0.0006710,0.97956202,0.0000,09/06.6415/2017,2000,g 10.5,4.0
# From MPC106345
P/2016 WM48 (Lemmon),e,117.5294,59.9187,36.1138,8.166587,0.0422322,0.78355838,79.2180,04/14.0/2022,2000,g 15.0,4.0
# From MPEC 2021-P47
C/2016 X1 (Lemmon),e,26.4545,256.3704,224.4745,1267,0.0000219,0.99403410,0.0000,04/27.8608/2019,2000,g  6.0,4.0
# From MPC108594
C/2017 A1 (PANSTARRS),e,49.8137,121.0156,1.9385,75.00112,0.0015174,0.96953507,2.7223,04/14.0/2022,2000,g 13.0,4.0
# From MPC114598
C/2017 AB5 (PANSTARRS),e,32.4566,42.6089,78.2923,2326,0.0000088,0.99604233,0.0000,02/14.4752/2018,2000,g  5.5,4.0
# From MPEC 2022-A21
C/2017 B3 (LINEAR),h,02/02.0654/2019,54.1601,2.1759,284.8186,1.000833,3.926500,2000,6.0,4.0
# From MPC103847
P/2017 B4 (PANSTARRS),e,20.0584,121.4578,11.0197,4.410520,0.1064068,0.36495152,359.9130,01/05.0/2017,2000,g 14.5,4.0
# From MPC104793
P/2017 D1 (Fuls),e,20.7609,82.1826,7.9695,4.828808,0.0928847,0.43651980,197.0289,04/14.0/2022,2000,g 14.0,4.0
# From MPC112391
C/2017 D2 (Barros),e,31.2576,330.9516,334.6342,12643,0.0000007,0.99980243,0.0000,07/14.6505/2017,2000,g 11.0,4.0
# From MPC114598
C/2017 D3 (ATLAS),h,04/27.4511/2017,125.5910,186.7172,340.8068,1.002048,4.965365,2000,8.0,4.0
# From MPC110495
P/2017 D4 (PANSTARRS),e,10.5397,264.9389,212.1833,7.553884,0.0474732,0.62855684,97.1930,04/14.0/2022,2000,g 13.0,4.0
# From MPC106346
C/2017 E1 (Borisov),h,04/10.3978/2017,14.5708,142.5733,152.7886,1.003251,0.907241,2000,14.0,4.0
# From MPEC 2021-P47
C/2017 E3 (PANSTARRS),h,06/07.2784/2017,70.6611,220.7942,334.4588,1.005879,5.936051,2000,6.5,4.0
# From MPC105239
C/2017 E4 (Lovejoy),h,04/23.3180/2017,87.9719,222.7831,87.0902,1.001483,0.492022,2000,17.0,4.0
# From MPC111769
C/2017 F1 (Lemmon),h,11/28.7702/2017,146.4612,158.7883,64.7228,1.001986,4.497801,2000,10.5,4.0
# From MPC114598
C/2017 F2 (PANSTARRS),h,11/26.0924/2017,42.5487,38.6966,134.9419,1.002216,6.927554,2000,7.5,4.0
# From MPC104794
P/2017 G1 (PANSTARRS),e,4.7795,249.6504,224.4233,7.279361,0.0501839,0.65322215,109.3100,04/14.0/2022,2000,g 13.5,4.0
# From MPC108595
P/2017 G2 (PANSTARRS),e,47.9532,79.8097,105.4774,8.056480,0.0431009,0.64760505,76.2506,04/14.0/2022,2000,g 13.0,4.0
# From MPEC 2021-P47
C/2017 G3 (PANSTARRS),e,159.0322,279.4536,73.0172,311.6745,0.0001791,0.99171752,0.0000,04/16.4466/2017,2000,g 14.0,4.0
# From MPC115882
C/2017 K1 (PANSTARRS),h,03/17.9794/2018,154.0206,225.7120,4.4351,1.003372,7.286902,2000,7.0,4.0
# From MPEC 2022-GA9
C/2017 K2 (PANSTARRS),h,12/19.6847/2022,87.5597,88.2361,236.1943,1.000749,1.797034,2000,1.5,4.0
# From MPEC 2021-N06
P/2017 K3 (Gasparovic),e,4.2730,354.2874,253.4452,5.584096,0.0746921,0.57957821,132.9831,04/14.0/2022,2000,g 14.5,4.0
# From MPC114598
C/2017 K4 (ATLAS),e,16.6711,298.8951,15.3217,28.66602,0.0064217,0.90728555,9.9959,04/14.0/2022,2000,g 10.0,4.0
# From MPEC 2021-P47
C/2017 K5 (PANSTARRS),h,03/27.2822/2020,82.2395,102.3755,172.0557,1.005487,7.682999,2000,5.0,4.0
# From MPC114599
C/2017 K6 (Jacques),e,57.2285,84.9470,303.7778,1169,0.0000246,0.99829360,0.0000,01/03.8686/2018,2000,g 11.0,4.0
# From MPEC 2021-P47
C/2017 M3 (PANSTARRS),e,77.5920,7.0401,110.2722,166.9062,0.0004571,0.97213446,0.0000,04/28.3851/2017,2000,g 10.5,4.0
# From MPEC 2021-Y10
C/2017 M4 (ATLAS),h,01/17.9615/2019,105.6461,65.9299,167.6180,1.001394,3.253416,2000,6.0,4.0
# From MPC118841
C/2017 M5 (TOTAS),h,06/04.4581/2018,15.8670,216.2889,92.8348,1.005390,6.000935,2000,6.5,4.0
# From MPC114599
C/2017 O1 (ASASSN),e,39.9701,25.7230,20.8374,370.0384,0.0001385,0.99596974,0.0000,10/15.5898/2017,2000,g 11.0,4.0
# From MPC114599
P/2017 P1 (PANSTARRS),e,7.6914,221.3793,122.5656,7.907424,0.0443253,0.31102053,61.7119,04/14.0/2022,2000,g 10.0,4.0
# From MPC114599
C/2017 P2 (PANSTARRS),e,50.0482,165.4560,132.4804,2523,0.0000078,0.99901988,0.0000,12/06.2206/2017,2000,g 10.0,4.0
# From MPC108595
C/2017 S2 (PANSTARRS),e,12.6706,62.3402,306.0844,20.62747,0.0105205,0.82482624,17.7525,04/14.0/2022,2000,g 13.0,4.0
# From MPC114599
C/2017 S3 (PANSTARRS),h,08/16.3926/2018,99.2083,171.3132,255.8549,1.000085,0.206351,2000,12.9,4.0
# From MPC109591
C/2017 S6 (Catalina),h,02/26.1394/2018,152.8665,131.0750,134.9406,1.000824,1.549496,2000,12.5,4.0
# From MPC114599
C/2017 S7 (Lemmon),e,124.2244,262.7375,187.5165,6691,0.0000018,0.99886315,0.0000,05/23.8379/2017,2000,g  7.0,4.0
# From MPC114599
P/2017 S8 (PANSTARRS),e,29.8577,191.5257,254.8076,2.779742,0.2126657,0.39103492,326.9718,04/14.0/2022,2000,g 16.0,4.0
# From MPC107050
P/2017 S9 (PANSTARRS),e,14.1438,146.2234,237.6578,3.154451,0.1759213,0.30547081,303.7965,04/14.0/2022,2000,g 17.0,4.0
# From MPC114600
C/2017 T1 (Heinze),e,96.8840,102.4615,97.0076,11313,0.0000008,0.99994826,0.0000,02/20.7490/2018,2000,g 14.5,4.0
# From MPEC 2021-Y10
C/2017 T2 (PANSTARRS),e,57.2394,64.3873,92.9732,1871,0.0000122,0.99913682,0.0000,05/04.8155/2020,2000,g  5.0,4.0
# From MPC114600
C/2017 T3 (ATLAS),e,88.1828,230.1712,246.8191,1184,0.0000242,0.99930363,0.0000,07/18.9158/2018,2000,g 10.0,4.0
# From MPC115882
P/2017 TW13 (Lemmon),e,44.8496,322.2880,119.9250,7.137839,0.0516837,0.70987261,71.9824,04/14.0/2022,2000,g 15.0,2.0
# From MPC114600
C/2017 U2 (Fuls),e,95.3889,149.7093,147.8668,2734,0.0000069,0.99754377,0.0000,08/28.1774/2017,2000,g  9.0,4.0
# From MPC114600
P/2017 U3 (PANSTARRS),e,15.9189,165.1114,296.4789,4.926803,0.0901273,0.09912376,98.8437,04/14.0/2022,2000,g 11.0,4.0
# From MPEC 2021-P47
C/2017 U4 (PANSTARRS),h,09/22.3210/2018,158.2069,245.9245,158.9825,1.000621,7.721068,2000,7.0,4.0
# From MPC114600
C/2017 U5 (PANSTARRS),e,18.9788,163.0866,261.9939,16.89200,0.0141965,0.74446553,22.3873,04/14.0/2022,2000,g 12.0,4.0
# From MPEC 2022-GA9
C/2017 U7 (PANSTARRS),h,09/14.6611/2019,142.6000,276.2512,326.3710,1.000859,6.426041,2000,8.3,2.0
# From MPC114600
C/2017 W2 (Leonard),e,98.2024,312.8288,168.9228,13.62462,0.0195983,0.71030664,31.8552,04/14.0/2022,2000,g 11.0,4.0
# From MPC114601
P/2017 W3 (Gibbs),e,18.1667,210.2384,327.8460,7.836806,0.0449258,0.50658917,67.6746,04/14.0/2022,2000,g 10.5,4.0
# From MPEC 2021-R75
C/2017 X1 (PANSTARRS),e,31.3204,251.1402,283.2165,31.12365,0.0056763,0.85002054,7.9446,04/14.0/2022,2000,g 10.0,4.0
# From MPC117069
C/2017 Y1 (PANSTARRS),e,55.2585,307.5077,134.2503,1768,0.0000133,0.99790390,0.0000,08/31.5140/2017,2000,g 11.5,4.0
# From MPEC 2022-ED3
C/2017 Y2 (PANSTARRS),h,11/04.9594/2020,128.4226,65.9981,147.9223,1.001037,4.632881,2000,15.0,4.0
# From MPC111770
P/2017 Y3 (Leonard),e,27.5576,153.8431,67.6066,9.832632,0.0319668,0.86969906,48.7307,04/14.0/2022,2000,g 16.5,4.0
# From MPC114601
C/2018 A1 (PANSTARRS),e,53.6136,336.6590,96.1972,25.10337,0.0078362,0.90404153,12.8189,04/14.0/2022,2000,g 12.5,4.0
# From MPEC 2021-P47
C/2018 A3 (ATLAS),e,139.5372,194.2930,86.3614,400.2534,0.0001231,0.99181359,0.0000,01/11.7788/2019,2000,g  8.5,4.0
# From MPC114601
C/2018 A4 (PANSTARRS),e,3.1494,97.6043,355.9759,12.18611,0.0231689,0.80353676,33.0433,04/14.0/2022,2000,g 14.0,4.0
# From MPC109147
P/2018 A5 (PANSTARRS),e,23.5949,87.8040,359.5034,5.630812,0.0737645,0.52283293,122.7200,04/14.0/2022,2000,g 15.0,4.0
# From MPEC 2022-C56
